NORAD_CAT_ID,OBJECT_NAME,OBJECT_TYPE,EPOCH,MEAN_MOTION,ECCENTRICITY,INCLINATION,RA_OF_ASC_NODE,ARG_OF_PERICENTER,MEAN_ANOMALY,BSTAR,MEAN_MOTION_DOT,MEAN_MOTION_DDOT,TLE_LINE0,TLE_LINE1,TLE_LINE2,SEMIMAJOR_AXIS,PERIOD,APOGEE,PERIGEE,DECAYED
52138.0,STARLINK-3723,PAYLOAD,2022-11-28 04:08:13,15.08832943,0.0001875,53.2179,44.992,39.5061,320.6067,-1.4146e-05,-5.13e-06,0.0,0 STARLINK-3723,1 52138U 22029BC  22332.17237598 -.00000513  00000-0 -14146-4 0  9999,2 52138  53.2179  44.9920 0001875  39.5061 320.6067 15.08832943 40158,6917.901999999999,95.438,541.064,538.47,0.0
52138.0,STARLINK-3723,PAYLOAD,2022-11-28 10:29:45,15.0883932,0.0001927,53.2177,43.8031,40.4783,319.6352,8.441899999999999e-05,1.056e-05,0.0,0 STARLINK-3723,1 52138U 22029BC  22332.43733382  .00001056  00000-0  84419-4 0  9991,2 52138  53.2177  43.8031 0001927  40.4783 319.6352 15.08839320 40192,6917.882,95.438,541.081,538.414,0.0
52138.0,STARLINK-3723,PAYLOAD,2022-11-28 21:37:28,15.08830192,0.0002013,53.2173,41.7219,38.663,321.4506,-3.4232e-05,-8.33e-06,0.0,0 STARLINK-3723,1 52138U 22029BC  22332.90102111 -.00000833  00000-0 -34232-4 0  9995,2 52138  53.2173  41.7219 0002013  38.6630 321.4506 15.08830192 40268,6917.91,95.438,541.168,538.383,0.0
52138.0,STARLINK-3723,PAYLOAD,2022-11-29 05:34:24,15.088312,0.0002067,53.2169,40.2335,38.2065,321.9074,0.00020802,3.023e-05,0.0,0 STARLINK-3723,1 52138U 22029BC  22333.23222348  .00003023  00000-0  20802-3 0  9996,2 52138  53.2169  40.2335 0002067  38.2065 321.9074 15.08831200 40315,6917.906999999997,95.438,541.202,538.342,0.0
52138.0,STARLINK-3723,PAYLOAD,2022-11-29 15:06:42,15.088412300000002,0.0002093,53.2173,38.4495,41.8017,318.3134,0.00029901,4.474e-05,0.0,0 STARLINK-3723,1 52138U 22029BC  22333.62966037  .00004474  00000-0  29901-3 0  9999,2 52138  53.2173  38.4495 0002093  41.8017 318.3134 15.08841230 40379,6917.877,95.437,541.19,538.294,0.0
52138.0,STARLINK-3723,PAYLOAD,2022-11-30 13:22:06,15.08847111,0.0002168,53.2167,34.2862,43.9384,316.178,0.00015239,2.138e-05,0.0,0 STARLINK-3723,1 52138U 22029BC  22334.55701801  .00002138  00000-0  15239-3 0  9992,2 52138  53.2167  34.2862 0002168  43.9384 316.1780 15.08847111 40510,6917.859,95.437,541.2230000000002,538.224,0.0
52138.0,STARLINK-3723,PAYLOAD,2022-12-01 03:40:34,15.08844684,0.0002212,53.217,31.6104,43.1152,317.0013,0.0001385,1.917e-05,0.0,0 STARLINK-3723,1 52138U 22029BC  22335.15317885  .00001917  00000-0  13850-3 0  9995,2 52138  53.2170  31.6104 0002212  43.1152 317.0013 15.08844684 40600,6917.866,95.437,541.261,538.201,0.0
52138.0,STARLINK-3723,PAYLOAD,2022-12-01 10:02:06,15.08849686,0.0002099,53.2164,30.4208,44.5178,315.5983,0.00021065,3.067e-05,0.0,0 STARLINK-3723,1 52138U 22029BC  22335.41813547  .00003067  00000-0  21065-3 0  9995,2 52138  53.2164  30.4208 0002099  44.5178 315.5983 15.08849686 40641,6917.851,95.437,541.168,538.264,0.0
52138.0,STARLINK-3723,PAYLOAD,2022-12-01 13:12:53,15.08844628,0.0001903,53.2176,29.8264,44.0822,316.0321,8.8209e-05,1.116e-05,0.0,0 STARLINK-3723,1 52138U 22029BC  22335.55061621  .00001116  00000-0  88209-4 0  9995,2 52138  53.2176  29.8264 0001903  44.0822 316.0321 15.08844628 40667,6917.866,95.437,541.048,538.415,0.0
52138.0,STARLINK-3723,PAYLOAD,2022-12-02 09:52:53,15.08852493,0.0002171,53.2176,25.9616,41.8116,318.3042,0.00020771,3.02e-05,0.0,0 STARLINK-3723,1 52138U 22029BC  22336.41173298  .00003020  00000-0  20771-3 0  9990,2 52138  53.2176  25.9616 0002171  41.8116 318.3042 15.08852493 40792,6917.842,95.437,541.2090000000002,538.205,0.0
52138.0,STARLINK-3723,PAYLOAD,2022-12-02 13:03:40,15.08849524,0.0001938,53.2172,25.3663,38.8676,321.2456,0.00016749,2.379e-05,0.0,0 STARLINK-3723,1 52138U 22029BC  22336.54421385  .00002379  00000-0  16749-3 0  9993,2 52138  53.2172  25.3663 0001938  38.8676 321.2456 15.08849524 40817,6917.851,95.437,541.057,538.376,0.0
52138.0,STARLINK-3723,PAYLOAD,2022-12-03 09:43:41,15.08839662,0.0002139,53.2175,21.501,38.6202,321.4943,2.353300000000001e-05,8.6e-07,0.0,0 STARLINK-3723,1 52138U 22029BC  22337.40534000  .00000086  00000-0  23533-4 0  9991,2 52138  53.2175  21.5010 0002139  38.6202 321.4943 15.08839662 40940,6917.880999999999,95.438,541.226,538.2669999999998,0.0
52138.0,STARLINK-3723,PAYLOAD,2022-12-03 12:54:27,15.08841198,0.0002153,53.2176,20.9064,38.7196,321.3951,5.2709e-05,5.51e-06,0.0,0 STARLINK-3723,1 52138U 22029BC  22337.53781933  .00000551  00000-0  52709-4 0  9998,2 52138  53.2176  20.9064 0002153  38.7196 321.3951 15.08841198 40969,6917.877,95.437,541.231,538.252,0.0
52138.0,STARLINK-3723,PAYLOAD,2022-12-03 14:29:50,15.08842079,0.000216,53.2176,20.6092,37.9808,322.1336,5.6076e-05,6.04e-06,0.0,0 STARLINK-3723,1 52138U 22029BC  22337.60405892  .00000604  00000-0  56076-4 0  9993,2 52138  53.2176  20.6092 0002160  37.9808 322.1336 15.08842079 40972,6917.874,95.437,541.2330000000002,538.245,0.0
52138.0,STARLINK-3723,PAYLOAD,2022-12-04 12:45:15,15.08837246,0.0002208,53.2185,16.4459,40.7836,319.3321,7.105e-05,8.43e-06,0.0,0 STARLINK-3723,1 52138U 22029BC  22338.53142394  .00000843  00000-0  71050-4 0  9995,2 52138  53.2185  16.4459 0002208  40.7836 319.3321 15.08837246 41117,6917.889,95.438,541.281,538.226,0.0
52138.0,STARLINK-3723,PAYLOAD,2022-12-04 14:20:38,15.08838412,0.0002209,53.2184,16.1484,40.4257,319.6899,7.824600000000001e-05,9.57e-06,0.0,0 STARLINK-3723,1 52138U 22029BC  22338.59766299  .00000957  00000-0  78246-4 0  9997,2 52138  53.2184  16.1484 0002209  40.4257 319.6899 15.08838412 41126,6917.885,95.438,541.278,538.222,0.0
52138.0,STARLINK-3723,PAYLOAD,2022-12-04 19:06:47,15.08844732,0.0002226,53.2185,15.2564,40.5536,319.5622,0.00014752,2.061e-05,0.0,0 STARLINK-3723,1 52138U 22029BC  22338.79637838  .00002061  00000-0  14752-3 0  9994,2 52138  53.2185  15.2564 0002226  40.5536 319.5622 15.08844732 41154,6917.866,95.437,541.271,538.191,0.0
52138.0,STARLINK-3723,PAYLOAD,2022-12-05 11:00:38,15.08844042,0.0002262,53.2185,12.2837,35.286,324.8281,8.9068e-05,1.13e-05,0.0,0 STARLINK-3723,1 52138U 22029BC  22339.45878149  .00001130  00000-0  89068-4 0  9999,2 52138  53.2185  12.2837 0002262  35.2860 324.8281 15.08844042 41250,6917.868,95.437,541.298,538.168,0.0
52138.0,STARLINK-3723,PAYLOAD,2022-12-06 01:19:06,15.08850242,0.0002622,53.2187,9.6075,42.4242,317.6953,0.00014405,2.006e-05,0.0,0 STARLINK-3723,1 52138U 22029BC  22340.05493583  .00002006  00000-0  14405-3 0  9997,2 52138  53.2187   9.6075 0002622  42.4242 317.6953 15.08850242 41345,6917.849,95.437,541.528,537.9,0.0
52138.0,STARLINK-3723,PAYLOAD,2022-12-06 09:16:02,15.08844838,0.0002226,53.2175,8.1199,39.167,320.9483,7.0004e-05,8.26e-06,0.0,0 STARLINK-3723,1 52138U 22029BC  22340.38613940  .00000826  00000-0  70004-4 0  9990,2 52138  53.2175   8.1199 0002226  39.1670 320.9483 15.08844838 41395,6917.866,95.437,541.271,538.191,0.0
52138.0,STARLINK-3723,PAYLOAD,2022-12-06 18:48:22,15.08828398,0.0002118,53.2177,6.3365,36.0436,324.0698,-0.0001599,-2.831e-05,0.0,0 STARLINK-3723,1 52138U 22029BC  22340.78358883 -.00002831  00000-0 -15990-3 0  9998,2 52138  53.2177   6.3365 0002118  36.0436 324.0698 15.08828398 41451,6917.916,95.438,541.246,538.316,0.0
52138.0,STARLINK-3723,PAYLOAD,2022-12-07 18:39:09,15.08831429,0.0002143,53.2176,1.876,35.8311,324.2825,-5.1329e-05,-1.105e-05,0.0,0 STARLINK-3723,1 52138U 22029BC  22341.77719427 -.00001105  00000-0 -51329-4 0  9993,2 52138  53.2176   1.8760 0002143  35.8311 324.2825 15.08831429 41606,6917.906999999997,95.438,541.254,538.289,0.0
52138.0,STARLINK-3723,PAYLOAD,2022-12-08 02:36:05,15.08836022,0.0002033,53.2174,0.3901,25.8669,334.2424,-7.915700000000001e-06,-4.14e-06,0.0,0 STARLINK-3723,1 52138U 22029BC  22342.10839353 -.00000414  00000-0 -79157-5 0  9994,2 52138  53.2174   0.3901 0002033  25.8669 334.2424 15.08836022 41653,6917.893,95.438,541.164,538.351,0.0
52138.0,STARLINK-3723,PAYLOAD,2022-12-08 10:33:01,15.08837741,0.0002192,53.2166,358.9023,30.8564,329.2557,0.00019987,2.894e-05,0.0,0 STARLINK-3723,1 52138U 22029BC  22342.43959578  .00002894  00000-0  19987-3 0  9997,2 52138  53.2166 358.9023 0002192  30.8564 329.2557 15.08837741 41703,6917.887,95.438,541.269,538.236,0.0
52138.0,STARLINK-3723,PAYLOAD,2022-12-08 18:29:56,15.08858186,0.0002215,53.2167,357.4151,37.4714,322.6433,0.00075539,0.0001176,0.0,0 STARLINK-3723,1 52138U 22029BC  22342.77079006  .00011760  00000-0  75539-3 0  9990,2 52138  53.2167 357.4151 0002215  37.4714 322.6433 15.08858186 41757,6917.825,95.436,541.222,538.158,0.0
52138.0,STARLINK-3723,PAYLOAD,2022-12-09 11:59:10,15.0883271,0.0002015,53.2167,354.1434,21.4983,338.6093,-0.00062434,-0.00010209,0.0,0 STARLINK-3723,1 52138U 22029BC  22343.49942600 -.00010209  00000-0 -62434-3 0  9998,2 52138  53.2167 354.1434 0002015  21.4983 338.6093 15.08832710 41860,6917.903,95.438,541.1619999999998,538.374,0.0
52138.0,STARLINK-3723,PAYLOAD,2022-12-10 10:14:34,15.08844528,0.0002317,53.2167,349.9809,34.2042,325.9099,0.00088255,0.00013788,0.0,0 STARLINK-3723,1 52138U 22029BC  22344.42679314  .00013788  00000-0  88255-3 0  9993,2 52138  53.2167 349.9809 0002317  34.2042 325.9099 15.08844528 42003,6917.8669999999975,95.437,541.3340000000002,538.129,0.0
52138.0,STARLINK-3723,PAYLOAD,2022-12-10 11:49:58,15.08847463,0.0002325,53.2168,349.6835,34.0557,326.0584,0.0010012,0.00015685,0.0,0 STARLINK-3723,1 52138U 22029BC  22344.49303294  .00015685  00000-0  10012-2 0  9994,2 52138  53.2168 349.6835 0002325  34.0557 326.0584 15.08847463 42011,6917.858,95.437,541.331,538.114,0.0
52138.0,STARLINK-3723,PAYLOAD,2022-12-11 03:43:49,15.0884773,0.000247,53.2185,346.7122,26.9771,333.1349,0.00056525,8.721e-05,0.0,0 STARLINK-3723,1 52138U 22029BC  22345.15543315  .00008721  00000-0  56525-3 0  9991,2 52138  53.2185 346.7122 0002470  26.9771 333.1349 15.08847730 42112,6917.857,95.437,541.43,538.013,0.0
